[{"OBJECT_NAME":"STARLINK-36301","OBJECT_ID":"2026-037A","EPOCH":"2026-03-24T22:00:00.999936","MEAN_MOTION":15.5283387,"ECCENTRICITY":0.00015808,"INCLINATION":42.9998,"RA_OF_ASC_NODE":106.1801,"ARG_OF_PERICENTER":275.4741,"MEAN_ANOMALY":53.4979,"EPHEMERIS_TYPE":0,"CLASSIFICATION_TYPE":"U","NORAD_CAT_ID":67932,"ELEMENT_SET_NO":999,"REV_AT_EPOCH":555,"BSTAR":-0.037568972,"MEAN_MOTION_DOT":-0.02121344,"MEAN_MOTION_DDOT":0},{"OBJECT_NAME":"STARLINK-36852","OBJECT_ID":"2026-037B","EPOCH":"2026-03-24T22:00:00.999936","MEAN_MOTION":15.50500355,"ECCENTRICITY":0.00012717,"INCLINATION":42.9998,"RA_OF_ASC_NODE":107.3078,"ARG_OF_PERICENTER":256.5227,"MEAN_ANOMALY":335.5894,"EPHEMERIS_TYPE":0,"CLASSIFICATION_TYPE":"U","NORAD_CAT_ID":67933,"ELEMENT_SET_NO":999,"REV_AT_EPOCH":564,"BSTAR":0.0011499097,"MEAN_MOTION_DOT":0.00067512,"MEAN_MOTION_DDOT":0},{"OBJECT_NAME":"STARLINK-36861","OBJECT_ID":"2026-037C","EPOCH":"2026-03-24T22:00:00.999936","MEAN_MOTION":15.50520853,"ECCENTRICITY":0.00012131,"INCLINATION":42.9998,"RA_OF_ASC_NODE":106.424,"ARG_OF_PERICENTER":267.3674,"MEAN_ANOMALY":322.4773,"EPHEMERIS_TYPE":0,"CLASSIFICATION_TYPE":"U","NORAD_CAT_ID":67934,"ELEMENT_SET_NO":999,"REV_AT_EPOCH":564,"BSTAR":0.001140921,"MEAN_MOTION_DOT":0.00067026,"MEAN_MOTION_DDOT":0},{"OBJECT_NAME":"STARLINK-36860","OBJECT_ID":"2026-037D","EPOCH":"2026-03-24T22:00:00.999936","MEAN_MOTION":15.5052209,"ECCENTRICITY":7.462e-5,"INCLINATION":43.0002,"RA_OF_ASC_NODE":106.9155,"ARG_OF_PERICENTER":270.2191,"MEAN_ANOMALY":120.9122,"EPHEMERIS_TYPE":0,"CLASSIFICATION_TYPE":"U","NORAD_CAT_ID":67935,"ELEMENT_SET_NO":999,"REV_AT_EPOCH":564,"BSTAR":0.0012146961,"MEAN_MOTION_DOT":0.00071426,"MEAN_MOTION_DDOT":0},{"OBJECT_NAME":"STARLINK-36848","OBJECT_ID":"2026-037E","EPOCH":"2026-03-24T22:00:00.999936","MEAN_MOTION":15.50520252,"ECCENTRICITY":0.00015832,"INCLINATION":42.9999,"RA_OF_ASC_NODE":107.0599,"ARG_OF_PERICENTER":261.3487,"MEAN_ANOMALY":71.2239,"EPHEMERIS_TYPE":0,"CLASSIFICATION_TYPE":"U","NORAD_CAT_ID":67936,"ELEMENT_SET_NO":999,"REV_AT_EPOCH":564,"BSTAR":0.0013396382,"MEAN_MOTION_DOT":0.00078879,"MEAN_MOTION_DDOT":0},{"OBJECT_NAME":"STARLINK-36370","OBJECT_ID":"2026-037F","EPOCH":"2026-03-24T22:00:00.999936","MEAN_MOTION":15.50522312,"ECCENTRICITY":0.00016611,"INCLINATION":43.0003,"RA_OF_ASC_NODE":106.846,"ARG_OF_PERICENTER":272.1947,"MEAN_ANOMALY":147.1734,"EPHEMERIS_TYPE":0,"CLASSIFICATION_TYPE":"U","NORAD_CAT_ID":67937,"ELEMENT_SET_NO":999,"REV_AT_EPOCH":564,"BSTAR":0.0012116322,"MEAN_MOTION_DOT":0.00071245,"MEAN_MOTION_DDOT":0},{"OBJECT_NAME":"STARLINK-36371","OBJECT_ID":"2026-037G","EPOCH":"2026-03-24T22:00:00.999936","MEAN_MOTION":15.50523396,"ECCENTRICITY":0.00014203,"INCLINATION":42.9998,"RA_OF_ASC_NODE":106.5627,"ARG_OF_PERICENTER":270.6614,"MEAN_ANOMALY":262.5855,"EPHEMERIS_TYPE":0,"CLASSIFICATION_TYPE":"U","NORAD_CAT_ID":67938,"ELEMENT_SET_NO":999,"REV_AT_EPOCH":564,"BSTAR":0.001243682,"MEAN_MOTION_DOT":0.00073159,"MEAN_MOTION_DDOT":0},{"OBJECT_NAME":"STARLINK-36246","OBJECT_ID":"2026-037H","EPOCH":"2026-03-24T22:00:00.999936","MEAN_MOTION":15.50518433,"ECCENTRICITY":0.00012828,"INCLINATION":43.0001,"RA_OF_ASC_NODE":106.9841,"ARG_OF_PERICENTER":275.0891,"MEAN_ANOMALY":87.8423,"EPHEMERIS_TYPE":0,"CLASSIFICATION_TYPE":"U","NORAD_CAT_ID":67939,"ELEMENT_SET_NO":999,"REV_AT_EPOCH":555,"BSTAR":0.0013502704,"MEAN_MOTION_DOT":0.00079508,"MEAN_MOTION_DDOT":0},{"OBJECT_NAME":"STARLINK-36907","OBJECT_ID":"2026-037J","EPOCH":"2026-03-24T22:00:00.999936","MEAN_MOTION":15.5050082,"ECCENTRICITY":0.00010938,"INCLINATION":42.9998,"RA_OF_ASC_NODE":106.1904,"ARG_OF_PERICENTER":274.3114,"MEAN_ANOMALY":49.453,"EPHEMERIS_TYPE":0,"CLASSIFICATION_TYPE":"U","NORAD_CAT_ID":67940,"ELEMENT_SET_NO":999,"REV_AT_EPOCH":564,"BSTAR":0.0013589447,"MEAN_MOTION_DOT":0.00079976,"MEAN_MOTION_DDOT":0},{"OBJECT_NAME":"STARLINK-36927","OBJECT_ID":"2026-037K","EPOCH":"2026-03-24T22:00:00.999936","MEAN_MOTION":15.50537645,"ECCENTRICITY":0.00011955,"INCLINATION":42.9998,"RA_OF_ASC_NODE":106.3564,"ARG_OF_PERICENTER":253.588,"MEAN_ANOMALY":2.7022,"EPHEMERIS_TYPE":0,"CLASSIFICATION_TYPE":"U","NORAD_CAT_ID":67941,"ELEMENT_SET_NO":999,"REV_AT_EPOCH":564,"BSTAR":0.0018808673,"MEAN_MOTION_DOT":0.00111418,"MEAN_MOTION_DDOT":0},{"OBJECT_NAME":"STARLINK-36914","OBJECT_ID":"2026-037L","EPOCH":"2026-03-24T22:00:00.999936","MEAN_MOTION":15.54997058,"ECCENTRICITY":0.00014164,"INCLINATION":43.0001,"RA_OF_ASC_NODE":105.953,"ARG_OF_PERICENTER":273.4066,"MEAN_ANOMALY":146.4282,"EPHEMERIS_TYPE":0,"CLASSIFICATION_TYPE":"U","NORAD_CAT_ID":67942,"ELEMENT_SET_NO":999,"REV_AT_EPOCH":564,"BSTAR":-0.03075909,"MEAN_MOTION_DOT":-0.01871878,"MEAN_MOTION_DDOT":0},{"OBJECT_NAME":"STARLINK-36851","OBJECT_ID":"2026-037M","EPOCH":"2026-03-24T22:00:00.999936","MEAN_MOTION":15.50516746,"ECCENTRICITY":0.00012813,"INCLINATION":42.9999,"RA_OF_ASC_NODE":106.322,"ARG_OF_PERICENTER":303.6452,"MEAN_ANOMALY":326.541,"EPHEMERIS_TYPE":0,"CLASSIFICATION_TYPE":"U","NORAD_CAT_ID":67943,"ELEMENT_SET_NO":999,"REV_AT_EPOCH":564,"BSTAR":0.0011392047,"MEAN_MOTION_DOT":0.00066914,"MEAN_MOTION_DDOT":0},{"OBJECT_NAME":"STARLINK-36892","OBJECT_ID":"2026-037N","EPOCH":"2026-03-24T22:00:00.999936","MEAN_MOTION":15.50513983,"ECCENTRICITY":0.00014241,"INCLINATION":42.9999,"RA_OF_ASC_NODE":106.248,"ARG_OF_PERICENTER":279.0492,"MEAN_ANOMALY":21.5375,"EPHEMERIS_TYPE":0,"CLASSIFICATION_TYPE":"U","NORAD_CAT_ID":67944,"ELEMENT_SET_NO":999,"REV_AT_EPOCH":564,"BSTAR":0.0014305757,"MEAN_MOTION_DOT":0.00084296,"MEAN_MOTION_DDOT":0},{"OBJECT_NAME":"STARLINK-36908","OBJECT_ID":"2026-037P","EPOCH":"2026-03-24T22:00:00.999936","MEAN_MOTION":15.50505153,"ECCENTRICITY":0.00013581,"INCLINATION":42.9998,"RA_OF_ASC_NODE":106.1689,"ARG_OF_PERICENTER":269.6025,"MEAN_ANOMALY":62.3025,"EPHEMERIS_TYPE":0,"CLASSIFICATION_TYPE":"U","NORAD_CAT_ID":67945,"ELEMENT_SET_NO":999,"REV_AT_EPOCH":564,"BSTAR":0.0012918425,"MEAN_MOTION_DOT":0.00075983,"MEAN_MOTION_DDOT":0},{"OBJECT_NAME":"STARLINK-36909","OBJECT_ID":"2026-037Q","EPOCH":"2026-03-24T22:00:00.999936","MEAN_MOTION":15.5712704,"ECCENTRICITY":0.0001215,"INCLINATION":42.9998,"RA_OF_ASC_NODE":105.7702,"ARG_OF_PERICENTER":280.3625,"MEAN_ANOMALY":212.5246,"EPHEMERIS_TYPE":0,"CLASSIFICATION_TYPE":"U","NORAD_CAT_ID":67946,"ELEMENT_SET_NO":999,"REV_AT_EPOCH":564,"BSTAR":-0.028516004,"MEAN_MOTION_DOT":-0.01878671,"MEAN_MOTION_DDOT":0},{"OBJECT_NAME":"STARLINK-36920","OBJECT_ID":"2026-037R","EPOCH":"2026-03-24T22:00:00.999936","MEAN_MOTION":15.50486156,"ECCENTRICITY":0.00019372,"INCLINATION":43,"RA_OF_ASC_NODE":106.4619,"ARG_OF_PERICENTER":274.7134,"MEAN_ANOMALY":298.7709,"EPHEMERIS_TYPE":0,"CLASSIFICATION_TYPE":"U","NORAD_CAT_ID":67947,"ELEMENT_SET_NO":999,"REV_AT_EPOCH":564,"BSTAR":0.0016432695,"MEAN_MOTION_DOT":0.00096943,"MEAN_MOTION_DDOT":0}]
