STARLINK-36301          
1 67932U 26037A   26083.91667824 -.02121344  00000+0 -37569-1 0  9996
2 67932  42.9998 106.1801 0001580 275.4741  53.4979 15.52833870  5555
STARLINK-36852          
1 67933U 26037B   26083.91667824  .00067512  00000+0  11499-2 0  9994
2 67933  42.9998 107.3078 0001271 256.5227 335.5894 15.50500355  5648
STARLINK-36861          
1 67934U 26037C   26083.91667824  .00067026  00000+0  11409-2 0  9996
2 67934  42.9998 106.4240 0001213 267.3674 322.4773 15.50520853  5648
STARLINK-36860          
1 67935U 26037D   26083.91667824  .00071426  00000+0  12147-2 0  9996
2 67935  43.0002 106.9155 0000746 270.2191 120.9122 15.50522090  5648
STARLINK-36848          
1 67936U 26037E   26083.91667824  .00078879  00000+0  13396-2 0  9993
2 67936  42.9999 107.0599 0001583 261.3487  71.2239 15.50520252  5640
STARLINK-36370          
1 67937U 26037F   26083.91667824  .00071245  00000+0  12116-2 0  9993
2 67937  43.0003 106.8460 0001661 272.1947 147.1734 15.50522312  5643
STARLINK-36371          
1 67938U 26037G   26083.91667824  .00073159  00000+0  12437-2 0  9996
2 67938  42.9998 106.5627 0001420 270.6614 262.5855 15.50523396  5643
STARLINK-36246          
1 67939U 26037H   26083.91667824  .00079508  00000+0  13503-2 0  9996
2 67939  43.0001 106.9841 0001282 275.0891  87.8423 15.50518433  5550
STARLINK-36907          
1 67940U 26037J   26083.91667824  .00079976  00000+0  13589-2 0  9991
2 67940  42.9998 106.1904 0001093 274.3114  49.4530 15.50500820  5641
STARLINK-36927          
1 67941U 26037K   26083.91667824  .00111418  00000+0  18809-2 0  9990
2 67941  42.9998 106.3564 0001195 253.5880   2.7022 15.50537645  5641
STARLINK-36914          
1 67942U 26037L   26083.91667824 -.01871878  00000+0 -30759-1 0  9994
2 67942  43.0001 105.9530 0001416 273.4066 146.4282 15.54997058  5646
STARLINK-36851          
1 67943U 26037M   26083.91667824  .00066914  00000+0  11392-2 0  9992
2 67943  42.9999 106.3220 0001281 303.6452 326.5410 15.50516746  5648
STARLINK-36892          
1 67944U 26037N   26083.91667824  .00084296  00000+0  14306-2 0  9994
2 67944  42.9999 106.2480 0001424 279.0492  21.5375 15.50513983  5647
STARLINK-36908          
1 67945U 26037P   26083.91667824  .00075983  00000+0  12918-2 0  9995
2 67945  42.9998 106.1689 0001358 269.6025  62.3025 15.50505153  5645
STARLINK-36909          
1 67946U 26037Q   26083.91667824 -.01878671  00000+0 -28516-1 0  9994
2 67946  42.9998 105.7702 0001215 280.3625 212.5246 15.57127040  5641
STARLINK-36920          
1 67947U 26037R   26083.91667824  .00096943  00000+0  16433-2 0  9992
2 67947  43.0000 106.4619 0001937 274.7134 298.7709 15.50486156  5645
